{"fetched_at":"2026-03-29T02:12:04Z","count":15717,"tles":[{"name":"COSMOS 2600","line1":"1 67674U 26023A   26087.11101343  .00069655  00000+0  32827-3 0  9995","line2":"2 67674  96.6388 162.1626 0002692 146.6459 213.4982 15.82902837  7966","category":"Other"}]}