{
  "norad_id": 67674,
  "name": "COSMOS 2600",
  "history": [
    {
      "epoch": "2026-03-28T02:39:51.560352",
      "apogee_km": 324.04049882773506,
      "perigee_km": 320.432213767901,
      "latitude_deg": 66.90149763186774,
      "longitude_deg": -121.94271072000265,
      "semi_major_axis_km": 6700.373356297818,
      "eccentricity": 0.00026926,
      "inclination_deg": 96.6388,
      "raan_deg": 162.1626,
      "arg_perigee_deg": 146.6459,
      "mean_anomaly_deg": 213.4982,
      "mean_motion_rev_day": 15.82902837
    }
  ]
}